{
    "links": {
        "self": "http://www.neowsapp.com/rest/v1/neo/3750666?api_key=iIulBulltgU6a56xZRHN4H3l9WmuAYTsLGpBGhQ2"
    },
    "id": "3750666",
    "neo_reference_id": "3750666",
    "name": "(2016 GS134)",
    "designation": "2016 GS134",
    "nasa_jpl_url": "http://ssd.jpl.nasa.gov/sbdb.cgi?sstr=3750666",
    "absolute_magnitude_h": 27.7,
    "estimated_diameter": {
        "kilometers": {
            "estimated_diameter_min": 0.0076657557,
            "estimated_diameter_max": 0.0171411509
        },
        "meters": {
            "estimated_diameter_min": 7.6657557353,
            "estimated_diameter_max": 17.1411509231
        },
        "miles": {
            "estimated_diameter_min": 0.0047632783,
            "estimated_diameter_max": 0.0106510141
        },
        "feet": {
            "estimated_diameter_min": 25.1501180466,
            "estimated_diameter_max": 56.2373735944
        }
    },
    "is_potentially_hazardous_asteroid": false,
    "close_approach_data": [
        {
            "close_approach_date": "2016-04-01",
            "close_approach_date_full": "2016-Apr-01 05:56",
            "epoch_date_close_approach": 1459490160000,
            "relative_velocity": {
                "kilometers_per_second": "11.237225117",
                "kilometers_per_hour": "40454.0104212828",
                "miles_per_hour": "25136.5488642687"
            },
            "miss_distance": {
                "astronomical": "0.0013336094",
                "lunar": "0.5187740566",
                "kilometers": "199505.125651978",
                "miles": "123966.7366661764"
            },
            "orbiting_body": "Earth"
        },
        {
            "close_approach_date": "2016-04-01",
            "close_approach_date_full": "2016-Apr-01 08:22",
            "epoch_date_close_approach": 1459498920000,
            "relative_velocity": {
                "kilometers_per_second": "12.2122206424",
                "kilometers_per_hour": "43963.9943126159",
                "miles_per_hour": "27317.5163549696"
            },
            "miss_distance": {
                "astronomical": "0.0035684572",
                "lunar": "1.3881298508",
                "kilometers": "533833.596306164",
                "miles": "331708.8152025032"
            },
            "orbiting_body": "Moon"
        },
        {
            "close_approach_date": "2067-04-29",
            "close_approach_date_full": "2067-Apr-29 22:00",
            "epoch_date_close_approach": 3071340000000,
            "relative_velocity": {
                "kilometers_per_second": "22.3240515876",
                "kilometers_per_hour": "80366.5857152606",
                "miles_per_hour": "49936.6709962407"
            },
            "miss_distance": {
                "astronomical": "0.3776865601",
                "lunar": "146.9200718789",
                "kilometers": "56501104.918586987",
                "miles": "35108158.6094629406"
            },
            "orbiting_body": "Earth"
        }
    ],
    "orbital_data": {
        "orbit_id": "10",
        "orbit_determination_date": "2019-07-11 06:09:33",
        "first_observation_date": "2016-04-02",
        "last_observation_date": "2016-05-01",
        "data_arc_in_days": 29,
        "observations_used": 27,
        "orbit_uncertainty": "7",
        "minimum_orbit_intersection": ".000835584",
        "jupiter_tisserand_invariant": "3.801",
        "epoch_osculation": "2459000.5",
        "eccentricity": ".5319100110465653",
        "semi_major_axis": "1.867803882458335",
        "inclination": ".08974599814693804",
        "ascending_node_longitude": "44.61945728203649",
        "orbital_period": "932.3851277377368",
        "perihelion_distance": ".8743002987071046",
        "perihelion_argument": "96.86863014299691",
        "aphelion_distance": "2.861307466209566",
        "perihelion_time": "2459308.162677360608",
        "mean_anomaly": "241.2094267113048",
        "mean_motion": ".3861065446994791",
        "equinox": "J2000",
        "orbit_class": {
            "orbit_class_type": "APO",
            "orbit_class_description": "Near-Earth asteroid orbits which cross the Earth’s orbit similar to that of 1862 Apollo",
            "orbit_class_range": "a (semi-major axis) > 1.0 AU; q (perihelion) < 1.017 AU"
        }
    },
    "is_sentry_object": false
}